{"type":"FeatureCollection","features":[{"type":"Feature","properties":{"ref":"L4","nombre":"Línea 4","color":"#292d91"},"geometry":{"type":"MultiLineString","coordinates":[[[-70.60086,-33.41875],[-70.59963,-33.41971],[-70.59883,-33.42028],[-70.59759,-33.42114],[-70.59691,-33.42167],[-70.59634,-33.42212],[-70.5945,-33.42358],[-70.59244,-33.4252],[-70.591,-33.42633],[-70.59051,-33.42675],[-70.58953,-33.42754],[-70.58858,-33.42829],[-70.58629,-33.43033],[-70.5856,-33.43092],[-70.58531,-33.43119],[-70.58513,-33.43138],[-70.585,-33.43151],[-70.58473,-33.4318],[-70.58422,-33.43238],[-70.58405,-33.43257],[-70.5839,-33.4327],[-70.58315,-33.43333],[-70.582,-33.43413],[-70.58156,-33.43439],[-70.57918,-33.43564],[-70.57897,-33.43575],[-70.57873,-33.43586],[-70.5784,-33.43599],[-70.57811,-33.43608],[-70.5778,-33.43615],[-70.57706,-33.43629],[-70.57679,-33.43635],[-70.57659,-33.43641],[-70.57634,-33.43649],[-70.57492,-33.43709],[-70.57467,-33.43721],[-70.57439,-33.43737],[-70.57415,-33.43752],[-70.57391,-33.43769],[-70.57376,-33.43781],[-70.57364,-33.43794],[-70.57355,-33.43806],[-70.57348,-33.43818],[-70.57343,-33.43826],[-70.57337,-33.43837],[-70.57333,-33.43847],[-70.5733,-33.43858],[-70.57327,-33.43869],[-70.57325,-33.4388],[-70.57317,-33.43921],[-70.57195,-33.44619],[-70.57142,-33.44921],[-70.57096,-33.45174],[-70.57086,-33.45236],[-70.57079,-33.45286],[-70.57078,-33.45304],[-70.57077,-33.45315],[-70.57078,-33.45322],[-70.57079,-33.4533],[-70.5708,-33.45341],[-70.57082,-33.45352],[-70.57085,-33.45373],[-70.57091,-33.45394],[-70.57096,-33.45415],[-70.57122,-33.45506],[-70.57147,-33.45597],[-70.57191,-33.4577],[-70.57195,-33.45784],[-70.57199,-33.45799],[-70.57265,-33.45987],[-70.57272,-33.46006],[-70.5728,-33.46024],[-70.57289,-33.46042],[-70.57343,-33.46151],[-70.57365,-33.46195],[-70.57372,-33.46209],[-70.57378,-33.46223],[-70.57387,-33.46242],[-70.57394,-33.46261],[-70.57518,-33.46598],[-70.57612,-33.46834],[-70.57624,-33.46863],[-70.57634,-33.46893],[-70.57644,-33.46923],[-70.57652,-33.46953],[-70.5766,-33.46982],[-70.57667,-33.47012],[-70.57716,-33.47253],[-70.57768,-33.47509]],[[-70.57768,-33.47509],[-70.57802,-33.47674],[-70.57824,-33.47775],[-70.57853,-33.47913],[-70.57867,-33.47979],[-70.57883,-33.48055],[-70.57917,-33.48211],[-70.57953,-33.48381],[-70.57978,-33.485],[-70.57987,-33.48546],[-70.58022,-33.48714],[-70.58039,-33.48802],[-70.58057,-33.48892],[-70.5806,-33.48906],[-70.58063,-33.4892],[-70.58067,-33.48935],[-70.58071,-33.48949],[-70.58079,-33.48971],[-70.58084,-33.48984],[-70.58089,-33.48996],[-70.58096,-33.49011],[-70.58103,-33.49025],[-70.58108,-33.49036],[-70.58115,-33.49047],[-70.58126,-33.49065],[-70.58144,-33.49096],[-70.58187,-33.49163],[-70.58321,-33.49376],[-70.58374,-33.4946],[-70.58436,-33.4956],[-70.58508,-33.49674],[-70.58597,-33.49816],[-70.58645,-33.49891],[-70.58665,-33.49923],[-70.58682,-33.49951],[-70.58693,-33.49969],[-70.58706,-33.49992],[-70.58716,-33.5001]],[[-70.58716,-33.5001],[-70.58721,-33.50021],[-70.58727,-33.50033]],[[-70.58727,-33.50033],[-70.58732,-33.50043],[-70.5874,-33.5006],[-70.58747,-33.50077],[-70.58817,-33.50244],[-70.58851,-33.50323],[-70.58896,-33.50428],[-70.58906,-33.5045],[-70.58914,-33.5047],[-70.58921,-33.50488],[-70.58928,-33.50508],[-70.58935,-33.50529],[-70.5894,-33.50547],[-70.58946,-33.50569],[-70.5895,-33.50586],[-70.58954,-33.50608],[-70.58959,-33.50635],[-70.58981,-33.50766]],[[-70.58981,-33.50766],[-70.59007,-33.50924],[-70.59031,-33.51071]],[[-70.59031,-33.51071],[-70.59049,-33.51178],[-70.59053,-33.51197],[-70.59055,-33.51213],[-70.59059,-33.51229],[-70.59063,-33.51243],[-70.59066,-33.51255],[-70.59071,-33.5127],[-70.59077,-33.51283],[-70.59083,-33.51297],[-70.5909,-33.5131],[-70.59097,-33.51323],[-70.59105,-33.51336],[-70.59113,-33.51348],[-70.59121,-33.5136],[-70.5913,-33.51371],[-70.59141,-33.51385],[-70.59156,-33.51401],[-70.59193,-33.51442],[-70.59232,-33.51481],[-70.59265,-33.51514],[-70.59301,-33.51556],[-70.59344,-33.51605],[-70.59379,-33.51647],[-70.59396,-33.51668],[-70.59454,-33.51743]],[[-70.59454,-33.51743],[-70.59498,-33.51802]],[[-70.59498,-33.51802],[-70.59518,-33.51827]],[[-70.59518,-33.51827],[-70.59593,-33.5193],[-70.59607,-33.51949],[-70.5962,-33.51968],[-70.59628,-33.51981],[-70.59636,-33.51994],[-70.59651,-33.52019],[-70.59665,-33.52045],[-70.59673,-33.52061],[-70.59682,-33.5208],[-70.59689,-33.52097],[-70.59696,-33.52115],[-70.59701,-33.52133],[-70.59707,-33.52151],[-70.59711,-33.52169],[-70.59716,-33.52185],[-70.59719,-33.52201],[-70.59723,-33.52224],[-70.59726,-33.52248],[-70.5973,-33.52271],[-70.59733,-33.52295],[-70.59734,-33.52312],[-70.59735,-33.52328],[-70.59736,-33.52345],[-70.59736,-33.52358],[-70.59736,-33.52371],[-70.59735,-33.52397],[-70.59733,-33.52417],[-70.59731,-33.52436],[-70.59726,-33.52481],[-70.59724,-33.52495],[-70.59722,-33.5251],[-70.59718,-33.52529],[-70.59713,-33.52548],[-70.59707,-33.52568],[-70.597,-33.52591],[-70.59692,-33.52614],[-70.59681,-33.52641],[-70.59516,-33.53052]],[[-70.59516,-33.53052],[-70.59432,-33.53252],[-70.59381,-33.5337]],[[-70.59381,-33.5337],[-70.59291,-33.53567],[-70.59271,-33.53611],[-70.59227,-33.53709],[-70.59097,-33.53994],[-70.5895,-33.54318],[-70.5885,-33.54545],[-70.58812,-33.5463],[-70.58794,-33.54671],[-70.58786,-33.54688],[-70.58778,-33.54707],[-70.58773,-33.5472],[-70.58768,-33.54733],[-70.58764,-33.54745],[-70.58761,-33.54758],[-70.58758,-33.54773],[-70.58756,-33.54788],[-70.58732,-33.54944],[-70.58726,-33.54987],[-70.58717,-33.55038],[-70.58673,-33.55295],[-70.58658,-33.55382],[-70.58598,-33.55722],[-70.58558,-33.55956],[-70.5854,-33.56056],[-70.58529,-33.56123],[-70.58518,-33.56188],[-70.58455,-33.56548],[-70.58433,-33.56672],[-70.58395,-33.56864],[-70.58383,-33.5693],[-70.5837,-33.56995],[-70.58353,-33.57083],[-70.58291,-33.57396],[-70.58248,-33.57617],[-70.58234,-33.5769],[-70.58222,-33.57749],[-70.58208,-33.5782],[-70.58188,-33.57922],[-70.58139,-33.58172],[-70.58055,-33.58591],[-70.58019,-33.58776],[-70.57997,-33.58897],[-70.57985,-33.58958],[-70.57969,-33.59045],[-70.57942,-33.59187],[-70.57897,-33.5942],[-70.5787,-33.59551]],[[-70.5787,-33.59551],[-70.57824,-33.59767]],[[-70.57824,-33.59767],[-70.57749,-33.60138],[-70.57746,-33.60158],[-70.5772,-33.60286],[-70.5767,-33.60536],[-70.57586,-33.60953],[-70.57458,-33.61611]]]}},{"type":"Feature","properties":{"ref":"L1","nombre":"Línea 1","color":"#cc0000"},"geometry":{"type":"MultiLineString","coordinates":[[[-70.545,-33.40787],[-70.5474,-33.40805],[-70.55232,-33.40842],[-70.55259,-33.40843],[-70.5527,-33.40843],[-70.5528,-33.40843],[-70.5529,-33.40843],[-70.55299,-33.40843],[-70.55311,-33.40841],[-70.55324,-33.4084],[-70.55352,-33.40836],[-70.55584,-33.40792],[-70.55698,-33.40772],[-70.55747,-33.40766],[-70.55787,-33.40762],[-70.55819,-33.40759],[-70.55889,-33.40754],[-70.56076,-33.40745],[-70.56115,-33.40744],[-70.56132,-33.40744],[-70.56149,-33.40745],[-70.56167,-33.40746],[-70.56186,-33.40748],[-70.56204,-33.4075],[-70.56222,-33.40753],[-70.5627,-33.40762],[-70.56313,-33.40772],[-70.56457,-33.40807],[-70.56609,-33.40844],[-70.56927,-33.4093],[-70.57214,-33.41013],[-70.57432,-33.41078],[-70.57563,-33.41121],[-70.57634,-33.41143],[-70.57715,-33.41168],[-70.58006,-33.41248],[-70.58034,-33.41256],[-70.58061,-33.41264],[-70.58086,-33.41273],[-70.58112,-33.41283],[-70.58269,-33.41347],[-70.58462,-33.41422],[-70.58484,-33.41431],[-70.58504,-33.41438],[-70.58518,-33.41442],[-70.58532,-33.41446],[-70.58546,-33.4145],[-70.58999,-33.41543],[-70.59571,-33.4166],[-70.59725,-33.41692],[-70.59751,-33.41698],[-70.59779,-33.41704],[-70.59809,-33.41712],[-70.5984,-33.41721],[-70.59989,-33.41764],[-70.60023,-33.41775],[-70.60057,-33.41786],[-70.60085,-33.41796],[-70.60114,-33.41806],[-70.6015,-33.4182],[-70.60211,-33.41846],[-70.60358,-33.41903],[-70.60591,-33.41992],[-70.60604,-33.41997],[-70.60614,-33.42002],[-70.60623,-33.42008],[-70.60631,-33.42013],[-70.60638,-33.42019],[-70.60645,-33.42025],[-70.60649,-33.42029],[-70.60658,-33.42039],[-70.60689,-33.42078],[-70.60697,-33.42086],[-70.6071,-33.42097],[-70.60763,-33.42137],[-70.60857,-33.42203],[-70.60947,-33.42266],[-70.61059,-33.42343],[-70.6107,-33.42352],[-70.61208,-33.42465],[-70.6123,-33.4248],[-70.61244,-33.42488],[-70.61252,-33.42494],[-70.61258,-33.42497],[-70.61264,-33.425],[-70.61271,-33.42503],[-70.61279,-33.42507],[-70.61381,-33.42547],[-70.61427,-33.42564],[-70.61435,-33.42567],[-70.61445,-33.42571],[-70.61452,-33.42574],[-70.61458,-33.42576],[-70.61464,-33.42579],[-70.61471,-33.42582],[-70.61477,-33.42585],[-70.61483,-33.42589],[-70.61489,-33.42593],[-70.61495,-33.42597],[-70.61502,-33.42601],[-70.61507,-33.42606],[-70.61516,-33.42613],[-70.6153,-33.42624],[-70.61597,-33.4268],[-70.6161,-33.4269],[-70.61625,-33.427],[-70.61644,-33.42712],[-70.61721,-33.42755],[-70.61751,-33.42769],[-70.61893,-33.42824],[-70.61965,-33.42854],[-70.61988,-33.42864],[-70.62011,-33.42874],[-70.62033,-33.42885],[-70.62055,-33.42896],[-70.62077,-33.42907],[-70.62098,-33.4292],[-70.6222,-33.42998],[-70.62346,-33.43075],[-70.62449,-33.43145],[-70.62484,-33.43171],[-70.62518,-33.43197],[-70.62549,-33.43221],[-70.6258,-33.43246],[-70.6261,-33.43271],[-70.6263,-33.43289],[-70.62727,-33.43383],[-70.62756,-33.43408],[-70.62774,-33.43423],[-70.62792,-33.43437],[-70.6281,-33.4345],[-70.62828,-33.43462],[-70.62847,-33.43474],[-70.62896,-33.43502],[-70.62967,-33.43541],[-70.63205,-33.43657],[-70.63241,-33.43674],[-70.63271,-33.43688],[-70.63295,-33.43701],[-70.63306,-33.43706],[-70.63317,-33.43711],[-70.63329,-33.43716],[-70.63342,-33.4372],[-70.63405,-33.43741],[-70.63523,-33.43775],[-70.63642,-33.43804],[-70.63683,-33.43814],[-70.637,-33.43819],[-70.63717,-33.43824],[-70.63734,-33.4383],[-70.63747,-33.43835],[-70.63761,-33.4384],[-70.63774,-33.43846],[-70.63788,-33.43851],[-70.63803,-33.43859],[-70.63834,-33.43874],[-70.63851,-33.43883],[-70.63866,-33.43892],[-70.63882,-33.43902],[-70.63917,-33.43925],[-70.63991,-33.43975],[-70.64249,-33.44152],[-70.64265,-33.44162],[-70.64281,-33.44171],[-70.64297,-33.4418],[-70.64317,-33.4419],[-70.64338,-33.442],[-70.6436,-33.44208],[-70.64408,-33.44225],[-70.64475,-33.44245],[-70.64513,-33.44255],[-70.64552,-33.44265],[-70.64591,-33.44275],[-70.64632,-33.44283],[-70.65067,-33.44385],[-70.65488,-33.44486],[-70.66102,-33.44632],[-70.66201,-33.44654],[-70.66714,-33.44769],[-70.66755,-33.44779],[-70.66804,-33.44791],[-70.67336,-33.44935],[-70.67735,-33.45042],[-70.67766,-33.45051],[-70.67798,-33.45059],[-70.67897,-33.45081],[-70.67938,-33.4509],[-70.67966,-33.45096],[-70.67975,-33.45098],[-70.67984,-33.45101],[-70.67991,-33.45104],[-70.67997,-33.45107],[-70.68007,-33.45112],[-70.68017,-33.45117],[-70.68049,-33.45137],[-70.68058,-33.45141],[-70.68066,-33.45145],[-70.68075,-33.45149],[-70.68085,-33.45152],[-70.68095,-33.45156],[-70.68105,-33.45158],[-70.68656,-33.45284],[-70.69228,-33.45419],[-70.69974,-33.45591],[-70.70676,-33.45753],[-70.70791,-33.4578],[-70.70832,-33.45788],[-70.70869,-33.45795],[-70.70899,-33.458],[-70.70939,-33.45805],[-70.70961,-33.45808],[-70.70982,-33.4581],[-70.70998,-33.45811],[-70.71014,-33.45812],[-70.71052,-33.45813],[-70.71089,-33.45814],[-70.71124,-33.45812],[-70.71159,-33.4581],[-70.71192,-33.45807],[-70.71228,-33.45803],[-70.71267,-33.45798],[-70.71304,-33.45793],[-70.71333,-33.45788],[-70.71362,-33.45783]],[[-70.71362,-33.45783],[-70.7144,-33.45767]],[[-70.7144,-33.45767],[-70.71545,-33.45747],[-70.71656,-33.45725],[-70.71695,-33.45715]],[[-70.71695,-33.45715],[-70.71845,-33.45685],[-70.71854,-33.45683],[-70.71864,-33.45682],[-70.71907,-33.45675],[-70.7192,-33.45673],[-70.71943,-33.45669]],[[-70.71943,-33.45669],[-70.72023,-33.45652],[-70.72044,-33.45648],[-70.72065,-33.45643],[-70.72085,-33.45637],[-70.72099,-33.45632],[-70.72113,-33.45627],[-70.72126,-33.45621],[-70.72138,-33.45614],[-70.72149,-33.45607],[-70.72159,-33.456],[-70.72169,-33.45592],[-70.72178,-33.45583],[-70.72188,-33.45573],[-70.72196,-33.45563],[-70.72203,-33.45552],[-70.72209,-33.45542],[-70.72214,-33.45532],[-70.72219,-33.45521],[-70.72222,-33.4551],[-70.72228,-33.45491],[-70.72233,-33.45472],[-70.72238,-33.45453],[-70.72242,-33.45431],[-70.72246,-33.45409],[-70.72249,-33.45386],[-70.72255,-33.4532],[-70.72266,-33.45158],[-70.7227,-33.45103]],[[-70.7227,-33.45103],[-70.7228,-33.4495],[-70.72286,-33.44856]],[[-70.72286,-33.44856],[-70.72311,-33.44519],[-70.72318,-33.4442]]]}},{"type":"Feature","properties":{"ref":"L5","nombre":"Línea 5","color":"#006633"},"geometry":{"type":"MultiLineString","coordinates":[[[-70.75729,-33.51053],[-70.75729,-33.50994],[-70.75733,-33.50404],[-70.75738,-33.50017],[-70.75741,-33.4981],[-70.75742,-33.49712],[-70.75742,-33.49624],[-70.7574,-33.49538],[-70.75739,-33.49526],[-70.75738,-33.49514],[-70.75735,-33.495],[-70.75733,-33.49487],[-70.7573,-33.49474],[-70.75726,-33.4946],[-70.75721,-33.49447],[-70.75716,-33.49434],[-70.7571,-33.49417],[-70.75703,-33.49401],[-70.75694,-33.49385],[-70.75686,-33.49372],[-70.75678,-33.49359],[-70.75669,-33.49346],[-70.75659,-33.49334],[-70.75649,-33.49322],[-70.75638,-33.4931],[-70.75626,-33.49298],[-70.75612,-33.49285],[-70.75597,-33.49271],[-70.75581,-33.49258],[-70.75565,-33.49246],[-70.75496,-33.49195],[-70.7547,-33.49176],[-70.75445,-33.49156],[-70.75424,-33.49139],[-70.75404,-33.49121],[-70.75393,-33.49112],[-70.75383,-33.49103],[-70.7537,-33.4909],[-70.75358,-33.49077],[-70.75346,-33.49064],[-70.7531,-33.49024],[-70.7519,-33.48878],[-70.75174,-33.48859],[-70.75157,-33.48841],[-70.75138,-33.48823],[-70.75118,-33.48806],[-70.75098,-33.48789],[-70.75011,-33.48715],[-70.74996,-33.48704],[-70.7498,-33.48692],[-70.74967,-33.48684],[-70.74954,-33.48676],[-70.74877,-33.48633],[-70.74859,-33.48623],[-70.74842,-33.48612],[-70.74826,-33.48601],[-70.74814,-33.48592],[-70.74802,-33.48582]],[[-70.74802,-33.48582],[-70.74792,-33.48573],[-70.74782,-33.48564],[-70.74772,-33.48553],[-70.74763,-33.48542],[-70.74708,-33.4847],[-70.74671,-33.48421]],[[-70.74671,-33.48421],[-70.74655,-33.48398],[-70.74631,-33.48364],[-70.74599,-33.48316],[-70.74567,-33.48268],[-70.74542,-33.48229],[-70.74484,-33.48137],[-70.74472,-33.4812],[-70.74459,-33.48103],[-70.74445,-33.48085],[-70.7443,-33.48068],[-70.74307,-33.47935],[-70.74279,-33.47904],[-70.74265,-33.47888],[-70.7425,-33.47871],[-70.7423,-33.47846],[-70.74211,-33.47821],[-70.74182,-33.47781],[-70.74158,-33.47747],[-70.7413,-33.47708],[-70.74048,-33.47597],[-70.73997,-33.47528],[-70.73949,-33.47464],[-70.73916,-33.4742],[-70.73901,-33.474],[-70.73885,-33.47381],[-70.73868,-33.4736],[-70.7385,-33.4734],[-70.7377,-33.47247],[-70.73762,-33.47237],[-70.73755,-33.47228],[-70.73746,-33.47215],[-70.73742,-33.47208],[-70.73738,-33.47202],[-70.73731,-33.47188],[-70.73725,-33.47175],[-70.73721,-33.47163],[-70.73718,-33.47152],[-70.73715,-33.4714],[-70.73713,-33.47127],[-70.73712,-33.47115],[-70.73712,-33.47098],[-70.73712,-33.47081],[-70.73721,-33.46857],[-70.73726,-33.46778],[-70.73731,-33.46727],[-70.73736,-33.46678],[-70.73758,-33.46483],[-70.73783,-33.46272],[-70.73789,-33.46216],[-70.73798,-33.46144],[-70.73832,-33.4583],[-70.73847,-33.45693]],[[-70.73847,-33.45693],[-70.73858,-33.45585]],[[-70.73858,-33.45585],[-70.73876,-33.45417],[-70.73878,-33.45403],[-70.7388,-33.4539],[-70.73883,-33.45376],[-70.73886,-33.45362],[-70.73896,-33.45324],[-70.73899,-33.45311],[-70.73902,-33.45298],[-70.73903,-33.45288],[-70.73904,-33.45278],[-70.73905,-33.45258],[-70.73923,-33.45023],[-70.73937,-33.44858],[-70.73943,-33.44788],[-70.73946,-33.44756],[-70.73947,-33.44747],[-70.73949,-33.44738],[-70.73952,-33.44729],[-70.73955,-33.44721],[-70.73958,-33.44715],[-70.73962,-33.4471],[-70.73967,-33.44705],[-70.73972,-33.44699],[-70.73977,-33.44695],[-70.73982,-33.4469],[-70.73987,-33.44687],[-70.73993,-33.44683],[-70.74005,-33.44676],[-70.7402,-33.44669],[-70.74097,-33.44636],[-70.74116,-33.44627],[-70.74131,-33.4462],[-70.74136,-33.44617],[-70.74141,-33.44613],[-70.74145,-33.44609],[-70.74149,-33.44605],[-70.74153,-33.44601],[-70.74157,-33.44597],[-70.7416,-33.44592],[-70.74163,-33.44586],[-70.74165,-33.44582],[-70.74167,-33.44578],[-70.74168,-33.44571],[-70.74169,-33.44565],[-70.7417,-33.44559],[-70.7417,-33.44552],[-70.74169,-33.44545],[-70.74167,-33.44539],[-70.74165,-33.44533],[-70.74163,-33.44527],[-70.7416,-33.44522],[-70.74156,-33.44517],[-70.74151,-33.44511],[-70.74146,-33.44507],[-70.74136,-33.445],[-70.7413,-33.44496],[-70.74124,-33.44493],[-70.74113,-33.44488],[-70.74095,-33.44481],[-70.74079,-33.44476],[-70.74058,-33.44471],[-70.74033,-33.44467],[-70.7401,-33.44466],[-70.73988,-33.44465],[-70.73403,-33.44458],[-70.73291,-33.44457],[-70.73176,-33.44455],[-70.72938,-33.44452],[-70.72669,-33.44447],[-70.72584,-33.44444],[-70.72524,-33.44441],[-70.72241,-33.44416],[-70.72193,-33.4441],[-70.72062,-33.44394],[-70.71675,-33.44343],[-70.71344,-33.44295],[-70.71247,-33.44281],[-70.71165,-33.44263],[-70.71039,-33.44236],[-70.70665,-33.44135],[-70.69894,-33.43926],[-70.69866,-33.43919],[-70.69839,-33.43914],[-70.69815,-33.4391],[-70.69791,-33.43906],[-70.69674,-33.4389],[-70.6939,-33.43855],[-70.69322,-33.43845],[-70.69215,-33.43823],[-70.69102,-33.43803],[-70.69085,-33.43799],[-70.69067,-33.43796],[-70.69049,-33.43794],[-70.69031,-33.43792],[-70.69013,-33.43791],[-70.69002,-33.43791],[-70.68992,-33.43791],[-70.68981,-33.43791],[-70.68967,-33.43793],[-70.68952,-33.43795],[-70.68935,-33.43798],[-70.68918,-33.43802],[-70.68902,-33.43806],[-70.68887,-33.43811],[-70.68872,-33.43817],[-70.6882,-33.43839],[-70.68707,-33.43895],[-70.68673,-33.43909],[-70.68638,-33.43922],[-70.68604,-33.43935],[-70.68568,-33.43947],[-70.6853,-33.4396],[-70.68491,-33.43971],[-70.68452,-33.43982],[-70.68386,-33.43999],[-70.68359,-33.44006],[-70.68332,-33.44012],[-70.68305,-33.44018],[-70.68275,-33.44023],[-70.68244,-33.44028],[-70.68213,-33.44032],[-70.68182,-33.44035],[-70.68151,-33.44038],[-70.68125,-33.4404],[-70.68099,-33.44041],[-70.68084,-33.44041],[-70.6807,-33.44041],[-70.68056,-33.44041],[-70.68042,-33.4404],[-70.68029,-33.44038],[-70.66853,-33.43916],[-70.66087,-33.43836],[-70.65964,-33.43824],[-70.65029,-33.43728],[-70.64919,-33.43717],[-70.64583,-33.43681],[-70.64413,-33.43665],[-70.64326,-33.43656],[-70.64305,-33.43656],[-70.64285,-33.43657],[-70.64264,-33.43659],[-70.64093,-33.43683],[-70.64064,-33.43685],[-70.64024,-33.43687],[-70.63991,-33.43687],[-70.63842,-33.43685],[-70.63567,-33.43678],[-70.63543,-33.43676],[-70.63514,-33.43673],[-70.63489,-33.4367],[-70.63456,-33.43664],[-70.63433,-33.43664],[-70.63419,-33.43664],[-70.63408,-33.43666],[-70.63396,-33.43669],[-70.63388,-33.43672],[-70.63375,-33.43678],[-70.63369,-33.43683],[-70.63364,-33.43688],[-70.63358,-33.43693],[-70.63354,-33.43698],[-70.6335,-33.43706],[-70.63328,-33.43756],[-70.63324,-33.43765],[-70.63277,-33.43871],[-70.63268,-33.43894],[-70.6326,-33.43915],[-70.63219,-33.44035],[-70.63213,-33.44055],[-70.6321,-33.44076],[-70.63209,-33.44092],[-70.6321,-33.44101],[-70.6321,-33.44111],[-70.63212,-33.44133],[-70.63215,-33.44154],[-70.63216,-33.44172],[-70.63215,-33.44192],[-70.63211,-33.44216],[-70.63197,-33.44281],[-70.63187,-33.44326],[-70.63185,-33.44336],[-70.63182,-33.44345],[-70.63177,-33.44356],[-70.63172,-33.44367],[-70.63167,-33.44376],[-70.6316,-33.44386],[-70.63153,-33.44395],[-70.63145,-33.44405],[-70.63137,-33.44416],[-70.6313,-33.44427],[-70.63124,-33.44439],[-70.63118,-33.44451],[-70.63108,-33.44485],[-70.63044,-33.44712],[-70.62973,-33.44965],[-70.62885,-33.45302],[-70.6285,-33.45442],[-70.62844,-33.45465],[-70.62839,-33.45488],[-70.62836,-33.45505],[-70.62817,-33.45613],[-70.62814,-33.45629],[-70.6281,-33.45644],[-70.62806,-33.45663],[-70.62801,-33.45681],[-70.62769,-33.45796]],[[-70.62494,-33.46688],[-70.62508,-33.46644],[-70.62575,-33.46431],[-70.6263,-33.46258],[-70.62647,-33.46205],[-70.62662,-33.46158],[-70.62687,-33.46079],[-70.62699,-33.46036],[-70.62769,-33.45796]],[[-70.62481,-33.46726],[-70.62494,-33.46688]],[[-70.62456,-33.46803],[-70.62472,-33.46755],[-70.62481,-33.46726]],[[-70.62456,-33.46803],[-70.62422,-33.46912],[-70.62418,-33.46927],[-70.62414,-33.46944],[-70.62411,-33.46961],[-70.62409,-33.46975],[-70.62408,-33.46988],[-70.62408,-33.47057],[-70.62408,-33.4707],[-70.62407,-33.47083],[-70.62405,-33.47095],[-70.62404,-33.47103],[-70.62402,-33.47111],[-70.62378,-33.47207],[-70.62346,-33.47335],[-70.6231,-33.47476],[-70.62279,-33.47592],[-70.62255,-33.47683],[-70.62228,-33.47783],[-70.62221,-33.47811],[-70.62184,-33.47949],[-70.62154,-33.48058],[-70.62116,-33.482],[-70.62082,-33.48329],[-70.62072,-33.48367],[-70.62068,-33.48379],[-70.62065,-33.48391],[-70.6206,-33.48403],[-70.62053,-33.48419],[-70.62046,-33.48434],[-70.6204,-33.48445],[-70.62033,-33.48455],[-70.61956,-33.48581],[-70.6192,-33.48641],[-70.61885,-33.48697],[-70.61875,-33.48713],[-70.61868,-33.48726],[-70.61862,-33.48738],[-70.61855,-33.48754],[-70.61849,-33.48769],[-70.61844,-33.48786],[-70.6184,-33.48802],[-70.61811,-33.48929],[-70.61786,-33.49039],[-70.61769,-33.49113],[-70.61754,-33.4918],[-70.61739,-33.49245],[-70.61695,-33.49438],[-70.61663,-33.49581],[-70.61598,-33.49871],[-70.61585,-33.49934],[-70.61571,-33.49996],[-70.61552,-33.50082],[-70.61522,-33.5022],[-70.61477,-33.5042],[-70.61445,-33.50568],[-70.61441,-33.50583],[-70.61437,-33.50598],[-70.61431,-33.50612],[-70.61425,-33.50627],[-70.61418,-33.5064],[-70.6141,-33.50652],[-70.61402,-33.50664],[-70.61393,-33.50676],[-70.61383,-33.50687],[-70.61373,-33.50698],[-70.61365,-33.50706],[-70.61356,-33.50714],[-70.61347,-33.50721],[-70.61245,-33.50796],[-70.61195,-33.50834],[-70.6117,-33.50853],[-70.61147,-33.50871],[-70.6113,-33.50885],[-70.61114,-33.50899],[-70.61109,-33.50903],[-70.61075,-33.50933],[-70.61059,-33.50947],[-70.61026,-33.50974],[-70.60937,-33.51048],[-70.60828,-33.51139],[-70.60704,-33.5124],[-70.60592,-33.51332],[-70.60498,-33.51409],[-70.60394,-33.51494],[-70.60286,-33.51585],[-70.60273,-33.51596],[-70.6026,-33.51608],[-70.6025,-33.51619],[-70.6024,-33.5163],[-70.6023,-33.51642],[-70.60222,-33.51652]],[[-70.60222,-33.51652],[-70.60136,-33.51768]],[[-70.60136,-33.51768],[-70.60004,-33.51953],[-70.59946,-33.52035],[-70.59929,-33.52061],[-70.59913,-33.52089],[-70.59902,-33.52109],[-70.59891,-33.52129],[-70.59881,-33.52151],[-70.59871,-33.52172],[-70.59857,-33.52205],[-70.59745,-33.52483],[-70.59682,-33.52641],[-70.59662,-33.52692]]]}},{"type":"Feature","properties":{"ref":"L6","nombre":"Línea 6","color":"#8e16a1"},"geometry":{"type":"MultiLineString","coordinates":[[[-70.6251,-33.46747],[-70.62582,-33.46765],[-70.62596,-33.4677],[-70.6261,-33.46775],[-70.62623,-33.46781],[-70.62636,-33.46788],[-70.62648,-33.46795],[-70.6266,-33.46803],[-70.6267,-33.46812],[-70.6268,-33.46822],[-70.62689,-33.46832],[-70.62698,-33.46843],[-70.62705,-33.46854],[-70.62711,-33.46865],[-70.62716,-33.46877],[-70.6272,-33.46889],[-70.62724,-33.46901],[-70.62726,-33.46913],[-70.62727,-33.46926],[-70.62727,-33.46938],[-70.62726,-33.46951],[-70.62724,-33.46963],[-70.6272,-33.46978],[-70.62714,-33.46996],[-70.62711,-33.47009],[-70.62708,-33.47021],[-70.62706,-33.47034],[-70.62705,-33.47047],[-70.62705,-33.4706],[-70.62707,-33.47073],[-70.62709,-33.47086],[-70.62713,-33.47098],[-70.62717,-33.47111],[-70.62723,-33.47123],[-70.6273,-33.47134],[-70.62738,-33.47146],[-70.62746,-33.47157],[-70.62756,-33.47167],[-70.62766,-33.47177],[-70.62778,-33.47186],[-70.6279,-33.47194],[-70.62803,-33.47202],[-70.62816,-33.47209],[-70.6283,-33.47215],[-70.63076,-33.47311],[-70.63183,-33.4735],[-70.63395,-33.47425],[-70.63867,-33.47594],[-70.63998,-33.4763],[-70.64025,-33.47637],[-70.64052,-33.47642],[-70.64079,-33.47648],[-70.64104,-33.47652],[-70.64129,-33.47655],[-70.64155,-33.47658],[-70.64176,-33.4766],[-70.64197,-33.47661],[-70.64218,-33.47662],[-70.64562,-33.47669],[-70.64811,-33.47672],[-70.64839,-33.47672],[-70.64868,-33.47671],[-70.64945,-33.47668],[-70.65014,-33.47665],[-70.65172,-33.4766],[-70.65194,-33.4766],[-70.65216,-33.4766],[-70.65232,-33.47661],[-70.65246,-33.47662],[-70.65259,-33.47663],[-70.65269,-33.47664],[-70.6528,-33.47666],[-70.65291,-33.47668],[-70.65301,-33.4767],[-70.65312,-33.47673],[-70.65321,-33.47677],[-70.6533,-33.4768],[-70.65348,-33.47688],[-70.65358,-33.47693],[-70.65368,-33.477],[-70.65384,-33.4771],[-70.65502,-33.478],[-70.65517,-33.47812],[-70.65532,-33.47823],[-70.65539,-33.47827],[-70.65561,-33.4784],[-70.65573,-33.47846],[-70.65587,-33.47852],[-70.65597,-33.47856],[-70.65615,-33.47863],[-70.65628,-33.47867],[-70.65635,-33.47869],[-70.65649,-33.47872],[-70.65658,-33.47874],[-70.65669,-33.47876],[-70.65679,-33.47878],[-70.65694,-33.4788],[-70.65711,-33.47881],[-70.65943,-33.47892],[-70.6596,-33.47893],[-70.65977,-33.47893],[-70.65994,-33.47892],[-70.66442,-33.47871],[-70.66468,-33.4787],[-70.66479,-33.47869],[-70.6649,-33.47869],[-70.66517,-33.47869],[-70.66892,-33.47874],[-70.66905,-33.47874],[-70.66916,-33.47873],[-70.66927,-33.47872],[-70.67139,-33.47857],[-70.6715,-33.47856],[-70.67159,-33.47856],[-70.67898,-33.47843],[-70.6809,-33.47842],[-70.68342,-33.47849],[-70.68361,-33.4785],[-70.68375,-33.47852],[-70.68388,-33.47854],[-70.68399,-33.47856],[-70.68409,-33.4786],[-70.68418,-33.47864],[-70.68428,-33.47868],[-70.68436,-33.47873],[-70.68444,-33.47878],[-70.68452,-33.47885],[-70.6846,-33.47892],[-70.68466,-33.47898],[-70.6847,-33.47905],[-70.68477,-33.47916],[-70.68483,-33.4793],[-70.68538,-33.48066],[-70.68618,-33.48247],[-70.6863,-33.48273],[-70.68636,-33.48284],[-70.68645,-33.48297],[-70.68651,-33.48306],[-70.68657,-33.48314],[-70.68665,-33.48323],[-70.68675,-33.48332],[-70.68684,-33.4834],[-70.68694,-33.48349],[-70.68705,-33.48356],[-70.68717,-33.48362],[-70.68728,-33.48367],[-70.68738,-33.48372],[-70.68753,-33.48378],[-70.6877,-33.48384],[-70.68787,-33.4839],[-70.68796,-33.48392],[-70.68806,-33.48395],[-70.68816,-33.48397],[-70.68827,-33.484],[-70.69156,-33.48456],[-70.69168,-33.48458],[-70.69179,-33.48459],[-70.69188,-33.48459],[-70.69197,-33.48459],[-70.69206,-33.48459],[-70.69215,-33.48459],[-70.69223,-33.48458],[-70.6923,-33.48457],[-70.6924,-33.48455],[-70.6925,-33.48452],[-70.69275,-33.48445],[-70.693,-33.48437],[-70.69485,-33.4837],[-70.69556,-33.48345]],[[-70.60809,-33.42078],[-70.60953,-33.42164],[-70.6099,-33.42187],[-70.6105,-33.42223],[-70.6112,-33.42269],[-70.61148,-33.42289],[-70.61161,-33.42299],[-70.61165,-33.42304],[-70.61172,-33.42311],[-70.61177,-33.42318],[-70.61181,-33.42325],[-70.61186,-33.42333],[-70.6119,-33.4234],[-70.61193,-33.42348],[-70.61195,-33.42356],[-70.61197,-33.42362],[-70.61199,-33.4237],[-70.612,-33.42379],[-70.61201,-33.42389],[-70.61201,-33.42396],[-70.61201,-33.42405],[-70.612,-33.42416],[-70.61199,-33.42426],[-70.61197,-33.42437],[-70.61193,-33.4245],[-70.61186,-33.42477],[-70.61179,-33.425],[-70.61173,-33.42518],[-70.61115,-33.42675],[-70.60946,-33.4313],[-70.60936,-33.43163],[-70.60928,-33.43191],[-70.60823,-33.43556],[-70.60766,-33.4375],[-70.60732,-33.43872],[-70.60718,-33.43929],[-70.60712,-33.43959],[-70.60707,-33.43984],[-70.60701,-33.44027],[-70.60682,-33.44144],[-70.60674,-33.44193],[-70.60666,-33.44236],[-70.60658,-33.44289],[-70.60628,-33.44467],[-70.60572,-33.44794],[-70.60553,-33.44904],[-70.60528,-33.45047],[-70.60506,-33.45179],[-70.60494,-33.45247],[-70.60488,-33.4528],[-70.60487,-33.45293],[-70.60485,-33.45306],[-70.60484,-33.45317],[-70.60484,-33.45328],[-70.60484,-33.45338],[-70.60484,-33.45347],[-70.60485,-33.45363],[-70.60487,-33.45385],[-70.6049,-33.45407],[-70.60494,-33.45429],[-70.60518,-33.45575],[-70.60541,-33.45718],[-70.60556,-33.45817],[-70.60586,-33.46007],[-70.60606,-33.46137],[-70.6062,-33.46238],[-70.60629,-33.46304],[-70.60637,-33.46348],[-70.60642,-33.46373],[-70.60648,-33.46395],[-70.60657,-33.46419],[-70.60669,-33.46443],[-70.60682,-33.46465],[-70.60695,-33.46481],[-70.60709,-33.46498],[-70.60722,-33.46511],[-70.60741,-33.46527],[-70.60765,-33.46545],[-70.6079,-33.46561],[-70.60821,-33.46577],[-70.60845,-33.46588],[-70.60877,-33.466],[-70.60911,-33.4661],[-70.60934,-33.46616],[-70.60961,-33.46622],[-70.60994,-33.46627],[-70.6102,-33.46629],[-70.61052,-33.4663],[-70.61081,-33.46628],[-70.61115,-33.46624],[-70.61148,-33.46619],[-70.61194,-33.46609],[-70.6131,-33.46585],[-70.61351,-33.46578],[-70.61388,-33.46572],[-70.61422,-33.46569],[-70.61452,-33.46567],[-70.61474,-33.46566],[-70.61501,-33.46567],[-70.61531,-33.4657],[-70.61743,-33.46597],[-70.6206,-33.46638],[-70.62107,-33.46644],[-70.62149,-33.46651],[-70.62185,-33.46659],[-70.62222,-33.46667],[-70.62265,-33.46679],[-70.62334,-33.46699],[-70.62475,-33.46738],[-70.6251,-33.46747]]]}},{"type":"Feature","properties":{"ref":"L4A","nombre":"Línea 4A","color":"#0099ff"},"geometry":{"type":"MultiLineString","coordinates":[[[-70.59581,-33.5192],[-70.59623,-33.51975],[-70.59668,-33.52038]],[[-70.59668,-33.52038],[-70.59681,-33.52055],[-70.59698,-33.52079],[-70.59729,-33.52121],[-70.59763,-33.52167],[-70.59779,-33.52188]],[[-70.59779,-33.52188],[-70.59796,-33.52208],[-70.59814,-33.5223],[-70.59827,-33.52245],[-70.59839,-33.52257],[-70.59851,-33.5227],[-70.59864,-33.52282],[-70.59873,-33.5229],[-70.59883,-33.52299]],[[-70.59883,-33.52299],[-70.59909,-33.5232],[-70.59928,-33.52333],[-70.59947,-33.52347],[-70.60022,-33.52398],[-70.60044,-33.52413],[-70.60066,-33.52428],[-70.6008,-33.52439],[-70.60093,-33.5245],[-70.60107,-33.52462],[-70.6012,-33.52474],[-70.60133,-33.52487],[-70.60146,-33.525],[-70.60164,-33.52521],[-70.60181,-33.52542],[-70.60196,-33.52561],[-70.6021,-33.52581],[-70.60252,-33.52644],[-70.60391,-33.52856],[-70.60501,-33.53025],[-70.60557,-33.5311],[-70.60607,-33.53187],[-70.60692,-33.53318],[-70.6091,-33.53654],[-70.61038,-33.53858],[-70.6105,-33.53877],[-70.61063,-33.53896],[-70.61072,-33.53907],[-70.6108,-33.53917],[-70.6109,-33.53929],[-70.611,-33.5394],[-70.6111,-33.5395],[-70.61122,-33.53961],[-70.61133,-33.53971],[-70.61145,-33.53981],[-70.61157,-33.5399],[-70.6117,-33.53999],[-70.61182,-33.54007],[-70.61194,-33.54015],[-70.61207,-33.54022],[-70.61221,-33.54029],[-70.61235,-33.54037],[-70.61249,-33.54043],[-70.61266,-33.54051],[-70.61284,-33.54058],[-70.61302,-33.54064],[-70.61321,-33.5407],[-70.61339,-33.54075],[-70.61358,-33.54079],[-70.61376,-33.54083],[-70.61393,-33.54086],[-70.61411,-33.54089],[-70.61428,-33.54091],[-70.61609,-33.54113],[-70.61724,-33.54127],[-70.61742,-33.5413],[-70.61759,-33.54133],[-70.61777,-33.54137],[-70.61828,-33.54148],[-70.61849,-33.54152],[-70.6187,-33.54156],[-70.6189,-33.54159],[-70.6191,-33.54162],[-70.62011,-33.54174]],[[-70.62011,-33.54174],[-70.62073,-33.54183]],[[-70.62073,-33.54183],[-70.62266,-33.54211],[-70.6229,-33.54214],[-70.62314,-33.54217],[-70.62333,-33.54218],[-70.62352,-33.5422],[-70.62403,-33.54224],[-70.62438,-33.54227],[-70.62466,-33.54231],[-70.62776,-33.54275],[-70.62814,-33.54279],[-70.62837,-33.54282],[-70.6286,-33.54285],[-70.62884,-33.54287],[-70.6291,-33.54289],[-70.62928,-33.54289],[-70.62947,-33.5429],[-70.62969,-33.54289],[-70.62992,-33.54289],[-70.6301,-33.54288],[-70.63026,-33.54287],[-70.63057,-33.54285],[-70.63092,-33.5428],[-70.63283,-33.54256],[-70.63412,-33.54238],[-70.6352,-33.54222],[-70.63556,-33.54218],[-70.6359,-33.54215],[-70.63657,-33.54208],[-70.6368,-33.54206],[-70.63706,-33.54202],[-70.63852,-33.54182],[-70.6396,-33.54167],[-70.64072,-33.54153],[-70.64191,-33.54138],[-70.64242,-33.54131],[-70.64316,-33.54121],[-70.64424,-33.54105],[-70.64632,-33.54074],[-70.64843,-33.54043],[-70.64931,-33.54031],[-70.65018,-33.54017],[-70.65088,-33.54006],[-70.65158,-33.53994],[-70.65254,-33.53977],[-70.65355,-33.53958],[-70.65538,-33.53923],[-70.65569,-33.53917],[-70.65601,-33.53911],[-70.65637,-33.53906],[-70.65673,-33.539],[-70.65817,-33.53876],[-70.65969,-33.5385],[-70.66037,-33.53838],[-70.66076,-33.53831],[-70.66114,-33.53824],[-70.66154,-33.53815],[-70.66195,-33.53805],[-70.66229,-33.53795],[-70.66264,-33.53786],[-70.66292,-33.53777],[-70.66329,-33.53766],[-70.66414,-33.5374],[-70.66544,-33.53699]],[[-70.66544,-33.53699],[-70.67007,-33.53551]]]}},{"type":"Feature","properties":{"ref":"L3","nombre":"Línea 3","color":"#83441D"},"geometry":{"type":"MultiLineString","coordinates":[[[-70.72889,-33.36574],[-70.72869,-33.3657],[-70.72851,-33.36566],[-70.72803,-33.36555],[-70.72794,-33.36554],[-70.72784,-33.36552],[-70.72777,-33.36552],[-70.7277,-33.36551],[-70.72763,-33.36552],[-70.72756,-33.36552],[-70.72745,-33.36553],[-70.72735,-33.36555],[-70.72568,-33.36594],[-70.72437,-33.36624],[-70.7242,-33.36628],[-70.72403,-33.36631],[-70.72387,-33.36634],[-70.72371,-33.36636],[-70.72352,-33.36638],[-70.72333,-33.36638],[-70.72246,-33.36639],[-70.72228,-33.3664],[-70.72211,-33.36641],[-70.72189,-33.36644],[-70.72171,-33.36646],[-70.7215,-33.36649],[-70.72129,-33.36653],[-70.71977,-33.36685],[-70.71717,-33.36739],[-70.71705,-33.36741],[-70.71694,-33.36742],[-70.71682,-33.36743],[-70.7167,-33.36743],[-70.71659,-33.36743],[-70.71648,-33.36742],[-70.71637,-33.36741],[-70.71624,-33.36739],[-70.71611,-33.36737],[-70.71597,-33.36734],[-70.71583,-33.3673],[-70.71392,-33.36684],[-70.71347,-33.36672],[-70.71259,-33.36651],[-70.71231,-33.36644],[-70.71203,-33.36638],[-70.71178,-33.36633],[-70.71152,-33.36629],[-70.70939,-33.36594],[-70.70923,-33.36592],[-70.70906,-33.3659],[-70.70888,-33.36589],[-70.7087,-33.36589],[-70.70769,-33.3659],[-70.70755,-33.3659],[-70.70742,-33.36589],[-70.70727,-33.36587],[-70.70712,-33.36584],[-70.70553,-33.36548],[-70.70534,-33.36545],[-70.70515,-33.36541],[-70.70496,-33.36538],[-70.70478,-33.36537],[-70.70465,-33.36535],[-70.70449,-33.36534],[-70.70435,-33.36534],[-70.7042,-33.36534],[-70.69982,-33.36547],[-70.69752,-33.3655],[-70.69343,-33.36544],[-70.69199,-33.36545],[-70.69116,-33.36546],[-70.69084,-33.36549],[-70.69047,-33.36554],[-70.69015,-33.3656],[-70.68987,-33.36569],[-70.68959,-33.36576],[-70.6892,-33.3659],[-70.68887,-33.36605],[-70.68871,-33.36612],[-70.68855,-33.36619],[-70.68839,-33.36627],[-70.68824,-33.36635],[-70.68807,-33.36645],[-70.68791,-33.36656],[-70.68776,-33.36667],[-70.68766,-33.36676],[-70.68758,-33.36685],[-70.68749,-33.36695],[-70.68742,-33.36705],[-70.68733,-33.36718],[-70.68726,-33.36731],[-70.68719,-33.36744],[-70.68714,-33.36758],[-70.68674,-33.36877],[-70.68663,-33.36912],[-70.68637,-33.36986],[-70.6863,-33.37005],[-70.68625,-33.37022],[-70.6862,-33.37039],[-70.68617,-33.37056],[-70.68615,-33.37074],[-70.68613,-33.37091],[-70.68613,-33.37108],[-70.68614,-33.37126],[-70.68624,-33.37205],[-70.68629,-33.37234],[-70.68632,-33.37262],[-70.68634,-33.37283],[-70.68635,-33.37305],[-70.68635,-33.37326],[-70.68635,-33.3734],[-70.68633,-33.37354],[-70.68631,-33.37368],[-70.68628,-33.37382],[-70.68625,-33.37395],[-70.6862,-33.37409],[-70.68615,-33.37422],[-70.68609,-33.37435],[-70.68602,-33.37448],[-70.68594,-33.3746],[-70.68513,-33.37585],[-70.68463,-33.37654],[-70.68443,-33.37683],[-70.68433,-33.37701],[-70.68423,-33.37719],[-70.68415,-33.37737],[-70.68408,-33.37754],[-70.68402,-33.3777],[-70.68397,-33.37786],[-70.68341,-33.37994],[-70.68335,-33.38012],[-70.68331,-33.38025],[-70.68325,-33.38039],[-70.68318,-33.38055],[-70.68296,-33.38106],[-70.6828,-33.38142],[-70.68264,-33.38172],[-70.68252,-33.38194],[-70.68233,-33.38224],[-70.68205,-33.38262],[-70.6819,-33.38284],[-70.68135,-33.38347],[-70.67965,-33.38539],[-70.67762,-33.38786],[-70.67646,-33.38926],[-70.67503,-33.39101],[-70.67438,-33.39195],[-70.67341,-33.39352],[-70.67252,-33.39494],[-70.67238,-33.39514],[-70.67223,-33.39533],[-70.67208,-33.39553],[-70.67193,-33.39571],[-70.67177,-33.39589],[-70.67125,-33.39642],[-70.67111,-33.39658],[-70.67097,-33.39673],[-70.67082,-33.39688],[-70.67067,-33.39702],[-70.67052,-33.39715],[-70.67036,-33.39729],[-70.66961,-33.3979],[-70.66746,-33.39971],[-70.66649,-33.40057],[-70.66625,-33.40078],[-70.66594,-33.40107],[-70.66534,-33.40167],[-70.66285,-33.40444],[-70.66179,-33.40559],[-70.66147,-33.40597],[-70.6613,-33.4062],[-70.66122,-33.40633],[-70.66114,-33.40646],[-70.66108,-33.40656],[-70.66103,-33.40667],[-70.66099,-33.40678],[-70.66076,-33.40736],[-70.66061,-33.40778],[-70.66015,-33.40902],[-70.65971,-33.41015],[-70.65927,-33.41123],[-70.65847,-33.41305],[-70.65704,-33.41603],[-70.65693,-33.41626],[-70.65683,-33.41651],[-70.65674,-33.41675],[-70.65664,-33.41707],[-70.65656,-33.41735],[-70.65648,-33.41768],[-70.65576,-33.42078],[-70.65549,-33.42222],[-70.65524,-33.42348],[-70.65506,-33.42417],[-70.65478,-33.42519],[-70.65339,-33.42993],[-70.65335,-33.43015],[-70.65334,-33.43032],[-70.65333,-33.43055],[-70.65326,-33.43276]],[[-70.65326,-33.43276],[-70.65325,-33.43311],[-70.65323,-33.43334],[-70.65321,-33.43358],[-70.65269,-33.43745],[-70.65218,-33.44095],[-70.65177,-33.44396],[-70.65175,-33.44412],[-70.65097,-33.44901],[-70.65058,-33.45139],[-70.64985,-33.45547],[-70.64955,-33.45699],[-70.64952,-33.45714],[-70.64947,-33.45728],[-70.64942,-33.45741],[-70.64936,-33.45755],[-70.64929,-33.45768],[-70.64925,-33.45775],[-70.6492,-33.45781],[-70.64911,-33.45793],[-70.64901,-33.45805],[-70.64889,-33.45817],[-70.64877,-33.45828],[-70.64865,-33.45838],[-70.64851,-33.45847],[-70.64837,-33.45856],[-70.64822,-33.45864],[-70.64806,-33.45871],[-70.6479,-33.45878],[-70.64773,-33.45884],[-70.64756,-33.45888],[-70.64738,-33.45892],[-70.64721,-33.45895],[-70.64703,-33.45897],[-70.64685,-33.45898],[-70.64667,-33.45898],[-70.64649,-33.45897],[-70.64631,-33.45895],[-70.64598,-33.4589],[-70.6435,-33.45837],[-70.64327,-33.45833],[-70.64307,-33.45829],[-70.63674,-33.45688],[-70.62953,-33.45539],[-70.62933,-33.45535],[-70.62914,-33.45531],[-70.62886,-33.45523],[-70.62858,-33.45515],[-70.62831,-33.45507],[-70.62806,-33.455],[-70.62747,-33.45483],[-70.62723,-33.45478],[-70.62698,-33.45473],[-70.62675,-33.45469],[-70.62652,-33.45466],[-70.62521,-33.45453],[-70.62505,-33.45451],[-70.62488,-33.45449],[-70.62475,-33.45446],[-70.62461,-33.45442],[-70.6229,-33.454],[-70.62213,-33.4538],[-70.62178,-33.45372],[-70.62141,-33.45364],[-70.62066,-33.45351],[-70.61826,-33.45314],[-70.61791,-33.45309],[-70.61767,-33.45306],[-70.61738,-33.45304],[-70.61702,-33.45303],[-70.61632,-33.45303],[-70.61577,-33.45304],[-70.61535,-33.45305],[-70.61504,-33.45306],[-70.61475,-33.45308],[-70.61447,-33.4531],[-70.61419,-33.45313],[-70.61352,-33.45321],[-70.60524,-33.45414],[-70.60352,-33.45433],[-70.60134,-33.45454],[-70.60013,-33.45467],[-70.59814,-33.45492],[-70.59545,-33.45521],[-70.59519,-33.45524],[-70.59494,-33.45526],[-70.59474,-33.45527],[-70.59454,-33.45528],[-70.58838,-33.45556],[-70.58804,-33.45557],[-70.58788,-33.45557],[-70.58772,-33.45557],[-70.58756,-33.45557],[-70.5874,-33.45556],[-70.58648,-33.45552],[-70.58632,-33.45551],[-70.58616,-33.4555],[-70.58603,-33.45548],[-70.58591,-33.45547],[-70.58574,-33.45544],[-70.58557,-33.4554],[-70.58525,-33.45532],[-70.58385,-33.45501],[-70.58362,-33.45496],[-70.58346,-33.45492],[-70.58331,-33.4549],[-70.58315,-33.45488],[-70.58291,-33.45485],[-70.58264,-33.45482],[-70.58203,-33.45475],[-70.58148,-33.45469],[-70.58074,-33.45461],[-70.58047,-33.45458],[-70.58022,-33.45456],[-70.58,-33.45454],[-70.57978,-33.45452],[-70.57848,-33.45443],[-70.57735,-33.45436],[-70.57651,-33.4543],[-70.57635,-33.45428],[-70.57626,-33.45427],[-70.57617,-33.45426],[-70.57609,-33.45423],[-70.57599,-33.4542],[-70.57588,-33.45416],[-70.57581,-33.45412],[-70.57575,-33.45409],[-70.57568,-33.45405],[-70.57557,-33.45398],[-70.57549,-33.45392],[-70.57516,-33.45366],[-70.57505,-33.45358],[-70.57497,-33.45353],[-70.57489,-33.45349],[-70.57483,-33.45346],[-70.57475,-33.45343],[-70.57466,-33.4534],[-70.57461,-33.45338],[-70.57456,-33.45337],[-70.57451,-33.45336],[-70.57443,-33.45335],[-70.57436,-33.45335],[-70.57426,-33.45334],[-70.57417,-33.45334],[-70.57408,-33.45335],[-70.57364,-33.45338],[-70.57225,-33.4535],[-70.57206,-33.45352],[-70.57189,-33.45352],[-70.57083,-33.45354],[-70.57046,-33.45354],[-70.57026,-33.45354],[-70.57005,-33.45353],[-70.56762,-33.45328],[-70.55881,-33.4522],[-70.55811,-33.45212]]]}},{"type":"Feature","properties":{"ref":"L2","nombre":"Línea 2","color":"#ffbe2e"},"geometry":{"type":"MultiLineString","coordinates":[[[-70.66056,-33.43387],[-70.6606,-33.43355],[-70.66062,-33.43336],[-70.66062,-33.43321],[-70.66062,-33.43307],[-70.66062,-33.43296],[-70.6606,-33.43286],[-70.66058,-33.43278],[-70.66055,-33.4327],[-70.66052,-33.43263],[-70.66049,-33.43256],[-70.66044,-33.43249],[-70.66039,-33.43242],[-70.66034,-33.43237],[-70.66028,-33.43232],[-70.66018,-33.43224],[-70.66009,-33.43218],[-70.65998,-33.43212],[-70.65982,-33.43205],[-70.65964,-33.43199],[-70.65945,-33.43193],[-70.65915,-33.43187],[-70.65899,-33.43186],[-70.65884,-33.43184],[-70.65867,-33.43184],[-70.65847,-33.43185],[-70.65826,-33.43187],[-70.65812,-33.4319],[-70.65777,-33.43198],[-70.65588,-33.4324],[-70.65467,-33.43267],[-70.65444,-33.43271],[-70.65419,-33.43273],[-70.653,-33.43279],[-70.65162,-33.43285],[-70.65143,-33.43286],[-70.65131,-33.43286],[-70.65119,-33.43286],[-70.65101,-33.43284],[-70.65083,-33.43282],[-70.65063,-33.43279],[-70.65043,-33.43276],[-70.65023,-33.43271],[-70.65004,-33.43266],[-70.64987,-33.43261],[-70.64969,-33.43255],[-70.6489,-33.43225],[-70.64868,-33.43217],[-70.64844,-33.43206],[-70.64835,-33.43201],[-70.64826,-33.43196],[-70.64819,-33.43192],[-70.64812,-33.43186],[-70.64805,-33.4318],[-70.64799,-33.43174],[-70.64793,-33.43167],[-70.64788,-33.43161],[-70.64784,-33.43154],[-70.6478,-33.43148],[-70.64769,-33.43126],[-70.6475,-33.43077],[-70.64713,-33.42973],[-70.64673,-33.42853],[-70.64645,-33.42757],[-70.64548,-33.42416],[-70.64508,-33.42275],[-70.64431,-33.4202],[-70.64423,-33.41993],[-70.64417,-33.41966],[-70.64412,-33.41943],[-70.64408,-33.41921],[-70.64402,-33.41886],[-70.64396,-33.41852],[-70.64391,-33.41813],[-70.64386,-33.41775],[-70.64381,-33.41736],[-70.64375,-33.41621],[-70.64362,-33.41398],[-70.64319,-33.40594],[-70.64287,-33.39966],[-70.64276,-33.39696],[-70.64262,-33.39403],[-70.64246,-33.39094],[-70.64229,-33.38782],[-70.64228,-33.38757],[-70.64207,-33.38531],[-70.64207,-33.38513],[-70.64207,-33.38494],[-70.64208,-33.38475],[-70.64211,-33.38456],[-70.64214,-33.38438],[-70.64218,-33.38419],[-70.64224,-33.38401],[-70.6423,-33.38383],[-70.64237,-33.38366],[-70.64245,-33.38348],[-70.64254,-33.38331],[-70.64264,-33.38314],[-70.64276,-33.38296],[-70.64288,-33.38279],[-70.64302,-33.38263],[-70.64316,-33.38247],[-70.64332,-33.38231],[-70.64348,-33.38216],[-70.64365,-33.38202],[-70.64383,-33.38189],[-70.64401,-33.38176],[-70.64421,-33.38164],[-70.64441,-33.38153],[-70.64461,-33.38142],[-70.64482,-33.38133],[-70.64504,-33.38124],[-70.64635,-33.38077]],[[-70.66056,-33.43387],[-70.66012,-33.43703],[-70.65998,-33.43809],[-70.65983,-33.43926],[-70.65978,-33.43968],[-70.65977,-33.43979],[-70.65977,-33.4399],[-70.65977,-33.44005],[-70.65977,-33.44014],[-70.65978,-33.44023],[-70.65979,-33.44032],[-70.65981,-33.44041],[-70.65986,-33.44064],[-70.65997,-33.44114],[-70.66002,-33.44131],[-70.66039,-33.44311],[-70.66042,-33.44321],[-70.66045,-33.44334],[-70.66058,-33.44392],[-70.66062,-33.44414],[-70.66064,-33.44434],[-70.66064,-33.44454]],[[-70.66064,-33.44454],[-70.66063,-33.44468],[-70.66063,-33.4448],[-70.66048,-33.44608],[-70.66041,-33.4467],[-70.66039,-33.44688],[-70.66034,-33.44711],[-70.66029,-33.44729],[-70.66024,-33.44747]],[[-70.66024,-33.44747],[-70.66004,-33.44808],[-70.65991,-33.44848],[-70.65977,-33.44892],[-70.65959,-33.44954],[-70.65893,-33.45182],[-70.65846,-33.45346],[-70.65828,-33.45409],[-70.65825,-33.45422],[-70.65821,-33.45434],[-70.65816,-33.45447],[-70.6581,-33.45459],[-70.65803,-33.45472],[-70.65795,-33.45485],[-70.65787,-33.45498],[-70.65731,-33.45569],[-70.65722,-33.45583],[-70.65713,-33.45598],[-70.65705,-33.45613],[-70.65699,-33.45628],[-70.65693,-33.45643],[-70.65689,-33.45659],[-70.65686,-33.45674],[-70.65683,-33.45692],[-70.65676,-33.45745],[-70.65675,-33.45763],[-70.65675,-33.45782],[-70.65675,-33.45799],[-70.65677,-33.45817],[-70.65689,-33.45934],[-70.6569,-33.45951],[-70.65691,-33.45968],[-70.65692,-33.45985],[-70.65692,-33.46005],[-70.65691,-33.46025]],[[-70.65691,-33.46025],[-70.65687,-33.46071]],[[-70.65687,-33.46071],[-70.65682,-33.46166],[-70.65679,-33.46218],[-70.65663,-33.46459],[-70.65656,-33.46575],[-70.6564,-33.46966],[-70.65636,-33.47056],[-70.65633,-33.47086],[-70.65632,-33.47098],[-70.65629,-33.47111],[-70.65626,-33.47123],[-70.65623,-33.47134],[-70.6562,-33.47142],[-70.65616,-33.4715],[-70.65612,-33.47159],[-70.65607,-33.47167]],[[-70.65607,-33.47167],[-70.65593,-33.47192],[-70.65586,-33.47202],[-70.65579,-33.47212],[-70.65569,-33.47225],[-70.65558,-33.47239],[-70.65552,-33.47246],[-70.65545,-33.47253],[-70.65538,-33.47259],[-70.65532,-33.47264],[-70.65526,-33.47268],[-70.6552,-33.47272],[-70.65514,-33.47275],[-70.65508,-33.47277],[-70.65496,-33.47281],[-70.6538,-33.47318],[-70.65202,-33.47374],[-70.65173,-33.47384],[-70.6515,-33.47393],[-70.65135,-33.474],[-70.65123,-33.47407],[-70.65102,-33.4742],[-70.65083,-33.47436],[-70.65065,-33.47452],[-70.65053,-33.47464],[-70.65041,-33.47477],[-70.6503,-33.4749],[-70.65018,-33.47504],[-70.65008,-33.47519],[-70.65002,-33.47528],[-70.64996,-33.47537],[-70.64989,-33.4755],[-70.64984,-33.47561],[-70.64979,-33.47572],[-70.64976,-33.47583],[-70.64952,-33.47659],[-70.64884,-33.47883],[-70.64878,-33.47903],[-70.64872,-33.47924],[-70.64868,-33.47946],[-70.64867,-33.47965],[-70.64867,-33.47982],[-70.64869,-33.47997],[-70.64873,-33.48013],[-70.64892,-33.48084],[-70.6494,-33.48259],[-70.65109,-33.48872],[-70.65152,-33.49024],[-70.6516,-33.49061],[-70.65168,-33.49099],[-70.65176,-33.49139],[-70.65182,-33.49181],[-70.65189,-33.49243],[-70.65191,-33.49256],[-70.65193,-33.49269],[-70.65197,-33.4929],[-70.65202,-33.49311],[-70.65257,-33.49514],[-70.65304,-33.49683],[-70.65465,-33.50244],[-70.65595,-33.50698],[-70.65667,-33.50954],[-70.65775,-33.51337],[-70.65885,-33.51728],[-70.66143,-33.52643],[-70.66228,-33.52953],[-70.6633,-33.5333],[-70.66462,-33.53837],[-70.66679,-33.54663],[-70.6679,-33.55091],[-70.66825,-33.55221],[-70.66906,-33.55507],[-70.67054,-33.56027],[-70.67344,-33.57079],[-70.67547,-33.57817],[-70.67576,-33.57915],[-70.67684,-33.58288]]]}}]}